{
  "type": "FeatureCollection",
  "features": [
    {
      "type": "Feature",
      "properties": {
        "norad_id": 66530,
        "name": "STARLINK-35961",
        "group": "last-30-days",
        "lat": 0.8445711965024005,
        "lon": -160.58002076013716,
        "alt_km": 443.675364416159,
        "timestamp": "2025-12-18T13:51:48.377991+00:00",
        "meta_object_name": "STARLINK-35961",
        "meta_object_id": "2025-265Q",
        "meta_epoch": "2025-12-17T12:11:53.028960",
        "meta_mean_motion": 15.40685219,
        "meta_eccentricity": 7.762e-05,
        "meta_inclination": 43.0003,
        "meta_ra_of_asc_node": 26.4907,
        "meta_arg_of_pericenter": 291.5722,
        "meta_mean_anomaly": 68.5051,
        "meta_ephemeris_type": 0,
        "meta_classification_type": "U",
        "meta_norad_cat_id": 66530,
        "meta_element_set_no": 999,
        "meta_rev_at_epoch": 449,
        "meta_bstar": 0.0012642944,
        "meta_mean_motion_dot": 0.00052849,
        "meta_mean_motion_ddot": 0,
        "tle_line1": "1 66530U 25265Q   25351.50825265  .00052849  00000+0  12643-2 0  9994",
        "tle_line2": "2 66530  43.0003  26.4907 0000776 291.5722  68.5051 15.40685219  4491"
      },
      "geometry": {
        "type": "Point",
        "coordinates": [
          -160.58002076013716,
          0.8445711965024005
        ]
      }
    },
    {
      "type": "Feature",
      "properties": {
        "norad_id": 66531,
        "name": "STARLINK-35960",
        "group": "last-30-days",
        "lat": -15.765439843674395,
        "lon": -142.09757430085887,
        "alt_km": 444.88311781615175,
        "timestamp": "2025-12-18T13:51:48.378004+00:00",
        "meta_object_name": "STARLINK-35960",
        "meta_object_id": "2025-265R",
        "meta_epoch": "2025-12-18T06:45:40.200192",
        "meta_mean_motion": 15.40712881,
        "meta_eccentricity": 0.0001453,
        "meta_inclination": 43.0012,
        "meta_ra_of_asc_node": 21.9731,
        "meta_arg_of_pericenter": 253.3902,
        "meta_mean_anomaly": 106.6795,
        "meta_ephemeris_type": 0,
        "meta_classification_type": "U",
        "meta_norad_cat_id": 66531,
        "meta_element_set_no": 999,
        "meta_rev_at_epoch": 461,
        "meta_bstar": 0.0010792444,
        "meta_mean_motion_dot": 0.00045065,
        "meta_mean_motion_ddot": 0,
        "tle_line1": "1 66531U 25265R   25352.28171528  .00045065  00000+0  10792-2 0  9992",
        "tle_line2": "2 66531  43.0012  21.9731 0001453 253.3902 106.6795 15.40712881  4615"
      },
      "geometry": {
        "type": "Point",
        "coordinates": [
          -142.09757430085887,
          -15.765439843674395
        ]
      }
    },
    {
      "type": "Feature",
      "properties": {
        "norad_id": 66532,
        "name": "STARLINK-35914",
        "group": "last-30-days",
        "lat": -30.65973945778796,
        "lon": -120.29075187641298,
        "alt_km": 445.93037692163944,
        "timestamp": "2025-12-18T13:51:48.378016+00:00",
        "meta_object_name": "STARLINK-35914",
        "meta_object_id": "2025-265S",
        "meta_epoch": "2025-12-18T03:32:30.146496",
        "meta_mean_motion": 15.40722847,
        "meta_eccentricity": 0.00011767,
        "meta_inclination": 43.0014,
        "meta_ra_of_asc_node": 22.6846,
        "meta_arg_of_pericenter": 247.6775,
        "meta_mean_anomaly": 112.3957,
        "meta_ephemeris_type": 0,
        "meta_classification_type": "U",
        "meta_norad_cat_id": 66532,
        "meta_element_set_no": 999,
        "meta_rev_at_epoch": 459,
        "meta_bstar": 0.00049121103,
        "meta_mean_motion_dot": 0.00020285,
        "meta_mean_motion_ddot": 0,
        "tle_line1": "1 66532U 25265S   25352.14757114  .00020285  00000+0  49121-3 0  9995",
        "tle_line2": "2 66532  43.0014  22.6846 0001176 247.6775 112.3957 15.40722847  4593"
      },
      "geometry": {
        "type": "Point",
        "coordinates": [
          -120.29075187641298,
          -30.65973945778796
        ]
      }
    },
    {
      "type": "Feature",
      "properties": {
        "norad_id": 66533,
        "name": "STARLINK-35707",
        "group": "last-30-days",
        "lat": -42.822577411163394,
        "lon": -75.89909451130251,
        "alt_km": 446.6374187068077,
        "timestamp": "2025-12-18T13:51:48.378029+00:00",
        "meta_object_name": "STARLINK-35707",
        "meta_object_id": "2025-265T",
        "meta_epoch": "2025-12-18T08:00:01.999872",
        "meta_mean_motion": 15.40681297,
        "meta_eccentricity": 0.00011863,
        "meta_inclination": 43.0007,
        "meta_ra_of_asc_node": 21.5262,
        "meta_arg_of_pericenter": 269.2743,
        "meta_mean_anomaly": 79.7716,
        "meta_ephemeris_type": 0,
        "meta_classification_type": "U",
        "meta_norad_cat_id": 66533,
        "meta_element_set_no": 999,
        "meta_rev_at_epoch": 589,
        "meta_bstar": 0.00038648883,
        "meta_mean_motion_dot": 0.00015864,
        "meta_mean_motion_ddot": 0,
        "tle_line1": "1 66533U 25265T   25352.33335648  .00015864  00000+0  38649-3 0  9991",
        "tle_line2": "2 66533  43.0007  21.5262 0001186 269.2743  79.7716 15.40681297  5898"
      },
      "geometry": {
        "type": "Point",
        "coordinates": [
          -75.89909451130251,
          -42.822577411163394
        ]
      }
    },
    {
      "type": "Feature",
      "properties": {
        "norad_id": 66534,
        "name": "STARLINK-35976",
        "group": "last-30-days",
        "lat": -28.65585324062627,
        "lon": -15.906906496693843,
        "alt_km": 446.12398364404635,
        "timestamp": "2025-12-18T13:51:48.378042+00:00",
        "meta_object_name": "STARLINK-35976",
        "meta_object_id": "2025-265U",
        "meta_epoch": "2025-12-18T08:00:01.999872",
        "meta_mean_motion": 15.40674165,
        "meta_eccentricity": 0.0001106,
        "meta_inclination": 43.0002,
        "meta_ra_of_asc_node": 21.4061,
        "meta_arg_of_pericenter": 275.1513,
        "meta_mean_anomaly": 123.6708,
        "meta_ephemeris_type": 0,
        "meta_classification_type": "U",
        "meta_norad_cat_id": 66534,
        "meta_element_set_no": 999,
        "meta_rev_at_epoch": 589,
        "meta_bstar": 0.00039723299,
        "meta_mean_motion_dot": 0.00016311,
        "meta_mean_motion_ddot": 0,
        "tle_line1": "1 66534U 25265U   25352.33335648  .00016311  00000+0  39723-3 0  9994",
        "tle_line2": "2 66534  43.0002  21.4061 0001106 275.1513 123.6708 15.40674165  5899"
      },
      "geometry": {
        "type": "Point",
        "coordinates": [
          -15.906906496693843,
          -28.65585324062627
        ]
      }
    },
    {
      "type": "Feature",
      "properties": {
        "norad_id": 66535,
        "name": "STARLINK-35514",
        "group": "last-30-days",
        "lat": -21.346723040775643,
        "lon": -4.829107241462278,
        "alt_km": 445.55664657556645,
        "timestamp": "2025-12-18T13:51:48.378091+00:00",
        "meta_object_name": "STARLINK-35514",
        "meta_object_id": "2025-265V",
        "meta_epoch": "2025-12-18T08:00:01.999872",
        "meta_mean_motion": 15.40678713,
        "meta_eccentricity": 0.0001527,
        "meta_inclination": 43,
        "meta_ra_of_asc_node": 21.3759,
        "meta_arg_of_pericenter": 270.8582,
        "meta_mean_anomaly": 140.3938,
        "meta_ephemeris_type": 0,
        "meta_classification_type": "U",
        "meta_norad_cat_id": 66535,
        "meta_element_set_no": 999,
        "meta_rev_at_epoch": 589,
        "meta_bstar": 0.00040850238,
        "meta_mean_motion_dot": 0.00016786,
        "meta_mean_motion_ddot": 0,
        "tle_line1": "1 66535U 25265V   25352.33335648  .00016786  00000+0  40850-3 0  9994",
        "tle_line2": "2 66535  43.0000  21.3759 0001527 270.8582 140.3938 15.40678713  5890"
      },
      "geometry": {
        "type": "Point",
        "coordinates": [
          -4.829107241462278,
          -21.346723040775643
        ]
      }
    },
    {
      "type": "Feature",
      "properties": {
        "norad_id": 66536,
        "name": "STARLINK-35640",
        "group": "last-30-days",
        "lat": 10.898725971709004,
        "lon": 31.77602326039911,
        "alt_km": 436.8601044262514,
        "timestamp": "2025-12-18T13:51:48.378107+00:00",
        "meta_object_name": "STARLINK-35640",
        "meta_object_id": "2025-265W",
        "meta_epoch": "2025-12-18T08:00:01.999872",
        "meta_mean_motion": 15.43629897,
        "meta_eccentricity": 0.00016208,
        "meta_inclination": 43.0002,
        "meta_ra_of_asc_node": 21.2645,
        "meta_arg_of_pericenter": 282.4084,
        "meta_mean_anomaly": 175.0727,
        "meta_ephemeris_type": 0,
        "meta_classification_type": "U",
        "meta_norad_cat_id": 66536,
        "meta_element_set_no": 999,
        "meta_rev_at_epoch": 587,
        "meta_bstar": -0.04655886,
        "meta_mean_motion_dot": -0.01921752,
        "meta_mean_motion_ddot": 0,
        "tle_line1": "1 66536U 25265W   25352.33335648 -.01921752  00000+0 -46559-1 0  9996",
        "tle_line2": "2 66536  43.0002  21.2645 0001620 282.4084 175.0727 15.43629897  5877"
      },
      "geometry": {
        "type": "Point",
        "coordinates": [
          31.77602326039911,
          10.898725971709004
        ]
      }
    }
  ]
}